188P/LINEAR-Mueller,e,10.5262,358.9112,26.8562,4.362577,0.1081656,0.41638501,3.2069,05/13.0/2026,2000,g 11.5,4.0
# From MPEC 2026-E44
190P/Mueller,e,2.1790,335.3984,50.4103,4.225892,0.1134557,0.52344550,57.2888,05/13.0/2026,2000,g 13.0,4.0
# From MPC191610
191P/McNaught,e,8.8393,98.1791,284.2440,3.641846,0.1418148,0.38475940,266.6907,05/13.0/2026,2000,g 13.0,4.0
# From MPC191610
192P/Shoemaker-Levy,e,24.5759,51.4930,313.0190,6.438754,0.0603256,0.77318323,43.3557,05/13.0/2026,2000,g 15.0,4.0
# From MPC191610
193P/LINEAR-NEAT,e,10.6770,335.1794,8.0759,3.580664,0.1454650,0.39239137,250.8469,05/13.0/2026,2000,g 14.0,4.0
# From MPC191610
194P/LINEAR,e,11.8032,349.4849,128.6811,4.124484,0.1176656,0.56338294,97.4941,05/13.0/2026,2000,g 16.0,4.0
# From MPEC 2026-J34
195P/Hill,e,36.4151,243.0851,250.6921,6.438909,0.0603234,0.31030243,16.8747,05/13.0/2026,2000,g  8.5,4.0
# From MPC191610
196P/Tichy,e,19.2871,24.1248,12.1501,3.807508,0.1326609,0.42707627,171.4443,05/13.0/2026,2000,g 13.5,4.0
# From MPC191611
197P/LINEAR,e,25.1390,66.0521,190.0144,2.912876,0.1982536,0.61663972,249.3052,05/13.0/2026,2000,g 16.5,2.0
# From MPC191611
198P/ODAS,e,1.3394,358.3151,69.2954,3.633416,0.1423087,0.44824029,24.5984,05/13.0/2026,2000,g 12.5,4.0
# From MPC191611
199P/Shoemaker,e,24.9409,92.3394,191.7151,5.869154,0.0693172,0.50410372,70.0174,05/13.0/2026,2000,g 10.0,4.0
# From MPC191611
200P/Larsen,e,12.0946,234.7353,134.4212,4.955825,0.0893367,0.33054638,221.7851,05/13.0/2026,2000,g  9.0,4.0
# From MPC191611
201P/LONEOS,e,5.7331,19.6652,41.6691,3.354334,0.1604333,0.63735065,290.4769,05/13.0/2026,2000,g 14.0,4.0
# From MPC191611
202P/Scotti,e,2.1416,177.2988,274.5568,4.099873,0.1187267,0.25087784,86.1451,05/13.0/2026,2000,g 13.5,4.0
# From MPC191611
203P/Korlevic,e,2.9762,290.2202,154.9886,4.668419,0.0977123,0.31626637,220.4868,05/13.0/2026,2000,g 14.5,2.0
# From MPC191611
204P/LINEAR-NEAT,e,6.5983,108.4721,356.7578,3.584481,0.1452328,0.48826575,184.7884,05/13.0/2026,2000,g 14.0,4.0
# From MPC191611
205P/Giacobini,e,15.3005,179.6239,154.1240,3.543504,0.1477592,0.56721914,233.7941,05/13.0/2026,2000,g 13.0,4.0
# From MPC191612
207P/NEAT,e,10.1961,198.0983,273.0863,3.887407,0.1285920,0.75851281,106.9912,05/13.0/2026,2000,g 16.0,4.0
# From MPC191612
208P/McMillan,e,4.3976,36.0588,311.6271,4.059630,0.1204965,0.37486013,75.2871,05/13.0/2026,2000,g 12.5,4.0
# From MPC191612
209P/LINEAR,e,21.2883,62.7463,152.4749,2.956980,0.1938347,0.67424094,129.3742,05/13.0/2026,2000,g 17.0,2.0
# From MPEC 2026-J11
210P/Christensen,e,10.2872,93.7968,345.9488,3.159967,0.1754609,0.83403360,30.0523,05/13.0/2026,2000,g 13.5,4.0
# From MPC191612
211P/Hill,e,18.9264,117.1001,4.3875,3.548683,0.1474359,0.34460692,193.9128,05/13.0/2026,2000,g 12.5,4.0
# From MPC191612
212P/NEAT,e,22.1483,97.9722,14.0967,3.904722,0.1277376,0.58672505,95.5196,05/13.0/2026,2000,g 17.0,2.0
# From MPC191612
213P/VanNess,e,10.7603,310.2264,8.1634,3.363092,0.1598070,0.41719330,143.4287,05/13.0/2026,2000,g 10.5,4.0
# From MPEC 2025-GB9
213P-B/Van Ness,e,10.7590,310.2247,8.1753,3.362813,0.1598269,0.41709969,143.4666,05/13.0/2026,2000,g 17.0,4.0
# From MPC191612
214P/LINEAR,e,15.1960,348.2257,190.1155,3.615451,0.1433707,0.48669056,189.8100,05/13.0/2026,2000,g 13.0,4.0
# From MPEC 2026-HI3
215P/NEAT,e,10.5754,56.6840,262.0909,4.337569,0.1091024,0.16483821,259.0441,05/13.0/2026,2000,g 11.0,4.0
# From MPC191612
216P/LINEAR,e,9.0628,359.7583,151.8109,3.860898,0.1299187,0.44918590,111.3110,05/13.0/2026,2000,g 13.0,4.0
# From MPEC 2026-HI3
217P/LINEAR,e,12.8718,125.3699,246.9912,3.946386,0.1257201,0.68966557,44.3715,05/13.0/2026,2000,g 12.0,4.0
# From MPEC 2026-J34
218P/LINEAR,e,2.7265,174.7227,61.3999,3.059331,0.1841893,0.63086281,12.8381,05/13.0/2026,2000,g 16.0,4.0
# From MPC191613
219P/LINEAR,e,11.3948,229.8064,109.1782,3.660186,0.1407503,0.35942850,114.6052,05/13.0/2026,2000,g 11.0,4.0
# From MPEC 2026-J11
220P/McNaught,e,8.1208,150.0837,180.5652,3.120805,0.1787739,0.50035229,354.2571,05/13.0/2026,2000,g 15.0,4.0
# From MPC191613
221P/LINEAR,e,10.2869,221.2170,47.3364,3.381035,0.1585366,0.52214231,250.3981,05/13.0/2026,2000,g 14.5,4.0
# From MPC191613
223P/Skiff,e,27.0073,346.6860,37.9889,4.158238,0.1162358,0.41603488,309.1011,05/13.0/2026,2000,g 12.0,4.0
# From MPC191613
224P/LINEAR-NEAT,e,13.2964,40.0347,16.8396,3.448124,0.1539323,0.40519375,203.3548,05/13.0/2026,2000,g 15.5,4.0
# From MPC191613
226P/Pigott-LINEAR-Kowalski,e,44.0397,54.0227,341.0398,3.765724,0.1348749,0.52855726,117.0946,05/13.0/2026,2000,g 12.5,4.0
# From MPC191614
227P/Catalina-LINEAR,e,7.5063,36.7783,105.6327,3.438130,0.1546040,0.52783714,122.9856,05/13.0/2026,2000,g 16.5,2.0
# From MPC191614
228P/LINEAR,e,7.9181,30.9489,114.9380,4.160048,0.1161600,0.17781297,261.6822,05/13.0/2026,2000,g 14.5,2.0
# From MPC191614
229P/Gibbs,e,26.1173,157.8106,224.3939,3.929686,0.1265224,0.37888892,54.7473,05/13.0/2026,2000,g 13.0,4.0
# From MPC191614
230P/LINEAR,e,15.4728,106.9242,313.5933,3.455564,0.1534355,0.54515709,232.4989,05/13.0/2026,2000,g 13.0,4.0
# From MPC191614
231P/LINEAR-NEAT,e,12.2787,132.7339,43.2132,4.071235,0.1199816,0.24003695,306.4622,05/13.0/2026,2000,g 14.5,2.0
# From MPC191614
232P/Hill,e,14.6436,55.9851,53.3960,4.468181,0.1043537,0.33623918,270.0644,05/13.0/2026,2000,g 11.5,4.0
# From MPEC 2026-E44
233P/LaSagra,e,11.2890,74.9141,26.9678,3.027351,0.1871156,0.41312168,23.3794,05/13.0/2026,2000,g 15.0,4.0
# From MPC191614
234P/LINEAR,e,11.5332,179.5499,357.5008,3.799474,0.1330818,0.25753868,75.3352,05/13.0/2026,2000,g 12.0,4.0
# From MPEC 2026-J34
235P/LINEAR,e,9.8128,200.1693,352.2077,3.446032,0.1540725,0.42602994,21.7706,05/13.0/2026,2000,g 12.0,4.0
# From MPC191614
236P/LINEAR,e,16.3243,245.4447,119.5524,3.730421,0.1367941,0.51047454,63.3064,05/13.0/2026,2000,g 14.0,4.0
# From MPC191615
237P/LINEAR,e,13.9890,245.3470,25.5819,3.520713,0.1491963,0.43104770,163.5730,05/13.0/2026,2000,g 14.5,2.0
# From MPC191615
238P/Read,e,1.2634,51.6509,324.2249,3.168575,0.1747463,0.25024434,251.4383,05/13.0/2026,2000,g 14.5,4.0
# From MPC191615
239P/LINEAR,e,11.3044,255.9090,220.4435,4.462128,0.1045661,0.63163512,279.8276,05/13.0/2026,2000,g 17.5,2.0
# From MPEC 2026-J34
240P/NEAT,e,23.5324,74.9072,352.0766,3.863224,0.1298014,0.45082905,18.6984,05/13.0/2026,2000,g 11.0,4.0
# From MPEC 2026-J34
240P-B/NEAT,e,23.5308,74.9079,352.0746,3.862503,0.1298377,0.45073116,18.6979,05/13.0/2026,2000,g 15.5,4.0
# From MPC191615
241P/LINEAR,e,21.0947,305.3590,111.6983,4.929568,0.0900515,0.60966882,157.7868,05/13.0/2026,2000,g 13.5,4.0
# From MPEC 2026-J34
242P/Spahr,e,32.4483,180.1248,245.0984,5.536654,0.0756542,0.28258359,38.2489,05/13.0/2026,2000,g  8.0,4.0
# From MPEC 2026-J11
243P/NEAT,e,7.6445,87.5739,283.7937,3.824940,0.1317550,0.35999080,10.0651,05/13.0/2026,2000,g 12.5,4.0
# From MPC191615
244P/Scotti,e,2.2569,353.9955,93.6758,4.907338,0.0906641,0.19955484,115.0682,05/13.0/2026,2000,g  9.0,4.0
# From MPC191615
245P/WISE,e,21.1713,316.6652,316.6951,4.054555,0.1207228,0.45601234,5.1769,05/13.0/2026,2000,g 14.0,4.0
# From MPC191616
246P/NEAT,e,17.1564,73.8340,184.6826,4.340278,0.1090003,0.20915249,221.9231,05/13.0/2026,2000,g 10.5,4.0
# From MPC191616
247P/LINEAR,e,13.6598,53.9947,47.5299,3.962016,0.1249769,0.62558063,339.2564,05/13.0/2026,2000,g 16.5,2.0
# From MPEC 2026-GD5
248P/Gibbs,e,6.3511,207.7377,210.0237,5.992151,0.0671939,0.64000934,16.1321,05/13.0/2026,2000,g 14.0,4.0
# From MPC191616
249P/LINEAR,e,8.2898,238.3786,66.5622,2.774481,0.2132708,0.81889703,99.1916,05/13.0/2026,2000,g 15.5,4.0
# From MPEC 2026-HH0
250P/Larson,e,13.1516,73.3011,45.7168,3.775767,0.1343372,0.39810312,48.5319,05/13.0/2026,2000,g 14.5,4.0
# From MPC191616
251P/LINEAR,e,23.3927,219.3370,31.1550,3.510697,0.1498353,0.50419729,122.8674,05/13.0/2026,2000,g 16.5,2.0
# From MPC191616
252P/LINEAR,e,10.4205,190.9064,343.3663,3.052065,0.1848474,0.67121003,326.9550,05/13.0/2026,2000,g 17.5,4.0
# From MPC191616
253P/PANSTARRS,e,4.9548,146.7885,230.6592,3.460824,0.1530858,0.41612915,87.1108,05/13.0/2026,2000,g 14.5,4.0
# From MPEC 2026-E44
254P/McNaught,e,32.5354,129.1740,219.6644,4.621139,0.0992157,0.31821594,203.8303,05/13.0/2026,2000,g 11.0,4.0
# From MPC191617
256P/LINEAR,e,27.6224,81.3024,124.0400,4.633403,0.0988221,0.41837860,114.4165,05/13.0/2026,2000,g 14.0,2.0
# From MPC191617
257P/Catalina,e,20.2119,207.7336,117.6724,3.769336,0.1346811,0.42868606,279.3849,05/13.0/2026,2000,g 11.5,4.0
# From MPC191617
258P/PANSTARRS,e,6.7510,126.2342,25.7117,4.386653,0.1072764,0.20999164,230.8490,05/13.0/2026,2000,g 13.0,4.0
# From MPC191617
259P/Garradd,e,15.8956,51.4354,257.3749,2.730073,0.2184956,0.33878942,340.1260,05/13.0/2026,2000,g 15.5,4.0
# From MPEC 2026-J34
260P/McNaught,e,15.0393,349.2714,18.5145,3.623357,0.1429017,0.60866123,347.9949,05/13.0/2026,2000,g 13.5,4.0
# From MPEC 2026-FR0
261P/Larson,e,6.0734,291.0497,67.3699,3.488308,0.1512801,0.42257855,20.6623,05/13.0/2026,2000,g 14.0,4.0
# From MPC191617
264P/Larsen,e,25.5376,218.9288,341.4718,4.038238,0.1214552,0.33696373,321.8607,05/13.0/2026,2000,g 13.0,4.0
# From MPC191617
265P/LINEAR,e,14.3293,342.8678,33.6063,4.262145,0.1120113,0.64624771,215.0933,05/13.0/2026,2000,g 14.5,4.0
# From MPC191618
266P/Christensen,e,3.4285,4.9834,97.8310,3.527577,0.1487611,0.34068186,328.9201,05/13.0/2026,2000,g 12.5,4.0
# From MPEC 2026-HH0
268P/Bernardi,e,15.6613,125.6278,0.0714,4.593213,0.1001219,0.47454190,51.1013,05/13.0/2026,2000,g 14.0,4.0
# From MPC191618
269P/Jedicke,e,7.0820,241.7368,225.8180,7.056207,0.0525832,0.43370743,222.3765,05/13.0/2026,2000,g 10.0,4.0
# From MPC191618
270P/Gehrels,e,2.9245,223.0146,209.9850,6.646822,0.0575153,0.47004495,270.4213,05/13.0/2026,2000,g  8.0,4.0
# From MPC191618
271P/vanHouten-Lemmon,e,6.8628,9.2077,36.6998,7.033526,0.0528378,0.39538731,246.8462,05/13.0/2026,2000,g 11.0,4.0
# From MPC191618
272P/NEAT,e,18.0831,109.4389,27.9137,4.462165,0.1045648,0.45570562,145.8579,05/13.0/2026,2000,g 16.0,2.0
# From MPC191618
